Zipcode,City,GeoCode,County,State,Metro,Column6
30002,Avondale Est,404/678/470,DeKalb County,Georgia - GA,"Atlanta,GA (0520)",MSA
30002,Avondale Estates,404/678/470,DeKalb County,Georgia - GA,"Atlanta,GA (0520)",MSA
30003,Norcross,770/678/470,Gwinnett County,Georgia - GA,"Atlanta,GA (0520)",MSA
30004,Alpharetta,770/678/470,Fulton County,Georgia - GA,"Atlanta,GA (0520)",MSA
30004,Milton,770/678/470,Fulton County,Georgia - GA,"Atlanta,GA (0520)",MSA
30005,Alpharetta,770/678/470,Fulton County,Georgia - GA,"Atlanta,GA (0520)",MSA
30005,Johns Creek,770/678/470,Fulton County,Georgia - GA,"Atlanta,GA (0520)",MSA
30006,Marietta,770/678/470,Cobb County,Georgia - GA,"Atlanta,GA (0520)",MSA
30007,Marietta,770/678/470,Cobb County,Georgia - GA,"Atlanta,GA (0520)",MSA
30008,Marietta,770/678/470,Cobb County,Georgia - GA,"Atlanta,GA (0520)",MSA
30009,Alpharetta,770/678/470,Fulton County,Georgia - GA,"Atlanta,GA (0520)",MSA
30009,Milton,770/678/470,Fulton County,Georgia - GA,"Atlanta,GA (0520)",MSA
30010,Norcross,770/678/470,Gwinnett County,Georgia - GA,"Atlanta,GA (0520)",MSA
30011,Auburn,770/678/470,Barrow County,Georgia - GA,"Atlanta,GA (0520)",MSA
30012,Conyers,770/678/470,Rockdale County,Georgia - GA,"Atlanta,GA (0520)",MSA
30013,Conyers,770/678/470,Rockdale County,Georgia - GA,"Atlanta,GA (0520)",MSA
30014,Covington,770/678/470,Newton County,Georgia - GA,"Atlanta,GA (0520)",MSA
30014,Porterdale,770/678/470,Newton County,Georgia - GA,"Atlanta,GA (0520)",MSA
30015,Covington,770/678/470,Newton County,Georgia - GA,"Atlanta,GA (0520)",MSA
30016,Covington,770/678/470,Newton County,Georgia - GA,"Atlanta,GA (0520)",MSA
30016,Porterdale,770/678/470,Newton County,Georgia - GA,"Atlanta,GA (0520)",MSA
30017,Grayson,770/678/470,Gwinnett County,Georgia - GA,"Atlanta,GA (0520)",MSA
30018,Jersey,770/678/470,Walton County,Georgia - GA,"Atlanta,GA (0520)",MSA
30019,Dacula,770/678/470,Gwinnett County,Georgia - GA,"Atlanta,GA (0520)",MSA
30021,Clarkston,404/678/470,DeKalb County,Georgia - GA,"Atlanta,GA (0520)",MSA
30022,Alpharetta,770/678/470,Fulton County,Georgia - GA,"Atlanta,GA (0520)",MSA
30022,Johns Creek,770/678/470,Fulton County,Georgia - GA,"Atlanta,GA (0520)",MSA
30023,Alpharetta,404/678/470,Fulton County,Georgia - GA,"Atlanta,GA (0520)",MSA
30024,Johns Creek,770/678/470,Gwinnett County,Georgia - GA,"Atlanta,GA (0520)",MSA
30024,Suwanee,770/678/470,Gwinnett County,Georgia - GA,"Atlanta,GA (0520)",MSA
30025,Social Circle,770/678/470,Walton County,Georgia - GA,"Atlanta,GA (0520)",MSA
30026,Duluth,770/678/470,Gwinnett County,Georgia - GA,"Atlanta,GA (0520)",MSA
30026,North Metro,770/678/470,Gwinnett County,Georgia - GA,"Atlanta,GA (0520)",MSA
30028,Cumming,770/678/470,Forsyth County,Georgia - GA,"Atlanta,GA (0520)",MSA
30029,Duluth,770/678/470,Gwinnett County,Georgia - GA,"Atlanta,GA (0520)",MSA
30029,North Metro,770/678/470,Gwinnett County,Georgia - GA,"Atlanta,GA (0520)",MSA
30030,Decatur,404/678/470,DeKalb County,Georgia - GA,"Atlanta,GA (0520)",MSA
30031,Decatur,404/678/470,DeKalb County,Georgia - GA,"Atlanta,GA (0520)",MSA
30032,Belvedere,404/678/470,DeKalb County,Georgia - GA,"Atlanta,GA (0520)",MSA
30032,Decatur,404/678/470,DeKalb County,Georgia - GA,"Atlanta,GA (0520)",MSA
30032,Dunaire,404/678/470,DeKalb County,Georgia - GA,"Atlanta,GA (0520)",MSA
30033,Decatur,404/678/470,DeKalb County,Georgia - GA,"Atlanta,GA (0520)",MSA
30033,North Decatur,404/678/470,DeKalb County,Georgia - GA,"Atlanta,GA (0520)",MSA
30033,Vista Grove,404/678/470,DeKalb County,Georgia - GA,"Atlanta,GA (0520)",MSA
30034,Decatur,404/678/470,DeKalb County,Georgia - GA,"Atlanta,GA (0520)",MSA
30035,Decatur,404/678/470,DeKalb County,Georgia - GA,"Atlanta,GA (0520)",MSA
30035,Snapfinger,404/678/470,DeKalb County,Georgia - GA,"Atlanta,GA (0520)",MSA
30036,Decatur,404/678/470,DeKalb County,Georgia - GA,"Atlanta,GA (0520)",MSA
30037,Decatur,404/678/470,DeKalb County,Georgia - GA,"Atlanta,GA (0520)",MSA
30038,Lithonia,770/678/470,DeKalb County,Georgia - GA,"Atlanta,GA (0520)",MSA
30039,Centerville Branch,770/678/470,Gwinnett County,Georgia - GA,"Atlanta,GA (0520)",MSA
30039,Snellville,770/678/470,Gwinnett County,Georgia - GA,"Atlanta,GA (0520)",MSA
30040,Cumming,770/678/470,Forsyth County,Georgia - GA,"Atlanta,GA (0520)",MSA
30041,Cumming,770/678/470,Forsyth County,Georgia - GA,"Atlanta,GA (0520)",MSA
30042,Lawrenceville,770/678/470,Gwinnett County,Georgia - GA,"Atlanta,GA (0520)",MSA
30043,Lawrenceville,770/678/470,Gwinnett County,Georgia - GA,"Atlanta,GA (0520)",MSA
30044,Lawrenceville,770/678/470,Gwinnett County,Georgia - GA,"Atlanta,GA (0520)",MSA
30045,Lawrenceville,770/678/470,Gwinnett County,Georgia - GA,"Atlanta,GA (0520)",MSA
30046,Lawrenceville,770/678/470,Gwinnett County,Georgia - GA,"Atlanta,GA (0520)",MSA
30047,Lilburn,770/678/470,Gwinnett County,Georgia - GA,"Atlanta,GA (0520)",MSA
30048,Lilburn,770/678/470,Gwinnett County,Georgia - GA,"Atlanta,GA (0520)",MSA
30049,Lawrenceville,770/678/470,Gwinnett County,Georgia - GA,"Atlanta,GA (0520)",MSA
30052,Loganville,770/678/470,Walton County,Georgia - GA,"Atlanta,GA (0520)",MSA
30054,Oxford,770/678/470,Newton County,Georgia - GA,"Atlanta,GA (0520)",MSA
30056,Newborn,770/678/470,Newton County,Georgia - GA,"Atlanta,GA (0520)",MSA
30058,Lithonia,770/678/470,DeKalb County,Georgia - GA,"Atlanta,GA (0520)",MSA
30060,Atlanta Naval Air Station,770/678/470,Cobb County,Georgia - GA,"Atlanta,GA (0520)",MSA
30060,Dobbins A F B,770/678/470,Cobb County,Georgia - GA,"Atlanta,GA (0520)",MSA
30060,Dobbins Air Force Base,770/678/470,Cobb County,Georgia - GA,"Atlanta,GA (0520)",MSA
30060,Marietta,770/678/470,Cobb County,Georgia - GA,"Atlanta,GA (0520)",MSA
30061,Marietta,770/678/470,Cobb County,Georgia - GA,"Atlanta,GA (0520)",MSA
30062,Marietta,770/678/470,Cobb County,Georgia - GA,"Atlanta,GA (0520)",MSA
30063,Lockheed,770/678/470,Cobb County,Georgia - GA,"Atlanta,GA (0520)",MSA
30063,Marietta,770/678/470,Cobb County,Georgia - GA,"Atlanta,GA (0520)",MSA
30064,Marietta,770/678/470,Cobb County,Georgia - GA,"Atlanta,GA (0520)",MSA
30065,Mar,770/678/470,Cobb County,Georgia - GA,"Atlanta,GA (0520)",MSA
30065,Marietta,770/678/470,Cobb County,Georgia - GA,"Atlanta,GA (0520)",MSA
30065,Mreta,770/678/470,Cobb County,Georgia - GA,"Atlanta,GA (0520)",MSA
30066,Marietta,770/678/470,Cobb County,Georgia - GA,"Atlanta,GA (0520)",MSA
30067,Marietta,770/678/470,Cobb County,Georgia - GA,"Atlanta,GA (0520)",MSA
30068,Marietta,770/678/470,Cobb County,Georgia - GA,"Atlanta,GA (0520)",MSA
30069,Dobbins AFB,770/678/470,Cobb County,Georgia - GA,"Atlanta,GA (0520)",MSA
30069,Dobbins Air Force Base,770/678/470,Cobb County,Georgia - GA,"Atlanta,GA (0520)",MSA
30069,Marietta,770/678/470,Cobb County,Georgia - GA,"Atlanta,GA (0520)",MSA
30070,Porterdale,770/678/470,Newton County,Georgia - GA,"Atlanta,GA (0520)",MSA
30071,Norcross,770/678/470,Gwinnett County,Georgia - GA,"Atlanta,GA (0520)",MSA
30072,Pine Lake,404/678/470,DeKalb County,Georgia - GA,"Atlanta,GA (0520)",MSA
30074,Redan,770/678/470,DeKalb County,Georgia - GA,"Atlanta,GA (0520)",MSA
30075,Roswell,770/678/470,Fulton County,Georgia - GA,"Atlanta,GA (0520)",MSA
30075,Sandy Plns,770/678/470,Fulton County,Georgia - GA,"Atlanta,GA (0520)",MSA
30076,Roswell,770/678/470,Fulton County,Georgia - GA,"Atlanta,GA (0520)",MSA
30077,Roswell,770/678/470,Fulton County,Georgia - GA,"Atlanta,GA (0520)",MSA
30078,Snellville,770/678/470,Gwinnett County,Georgia - GA,"Atlanta,GA (0520)",MSA
30079,Scottdale,404/678/470,DeKalb County,Georgia - GA,"Atlanta,GA (0520)",MSA
30080,Smyrna,770/678/470,Cobb County,Georgia - GA,"Atlanta,GA (0520)",MSA
30081,Smyrna,770/678/470,Cobb County,Georgia - GA,"Atlanta,GA (0520)",MSA
30082,Smyrna,770/678/470,Cobb County,Georgia - GA,"Atlanta,GA (0520)",MSA
30083,Memorial Square,770/678/470,DeKalb County,Georgia - GA,"Atlanta,GA (0520)",MSA
30083,Saint Mountain,770/678/470,DeKalb County,Georgia - GA,"Atlanta,GA (0520)",MSA
30083,Stone Mountain,770/678/470,DeKalb County,Georgia - GA,"Atlanta,GA (0520)",MSA
30084,Tucker,770/678/470,DeKalb County,Georgia - GA,"Atlanta,GA (0520)",MSA
30085,Tucker,770/678/470,DeKalb County,Georgia - GA,"Atlanta,GA (0520)",MSA
30086,Saint Mountain,770/678/470,DeKalb County,Georgia - GA,"Atlanta,GA (0520)",MSA
30086,Stone Mountain,770/678/470,DeKalb County,Georgia - GA,"Atlanta,GA (0520)",MSA
30087,Smoke Rise,770/678/470,DeKalb County,Georgia - GA,"Atlanta,GA (0520)",MSA
30087,Stone Mountain,770/678/470,DeKalb County,Georgia - GA,"Atlanta,GA (0520)",MSA
30088,Stone Mountain,770/678/470,DeKalb County,Georgia - GA,"Atlanta,GA (0520)",MSA
30090,Marietta,770/678/470,Cobb County,Georgia - GA,"Atlanta,GA (0520)",MSA
30091,Norcross,770/678/470,Gwinnett County,Georgia - GA,"Atlanta,GA (0520)",MSA
30092,Berkeley Lake,770/678/470,Gwinnett County,Georgia - GA,"Atlanta,GA (0520)",MSA
30092,Norcross,770/678/470,Gwinnett County,Georgia - GA,"Atlanta,GA (0520)",MSA
30092,Parkway,770/678/470,Gwinnett County,Georgia - GA,"Atlanta,GA (0520)",MSA
30092,Peachtree Corners,770/678/470,Gwinnett County,Georgia - GA,"Atlanta,GA (0520)",MSA
30093,Norcross,770/678/470,Gwinnett County,Georgia - GA,"Atlanta,GA (0520)",MSA
30093,Rockbridge,770/678/470,Gwinnett County,Georgia - GA,"Atlanta,GA (0520)",MSA
30094,Conyers,770/678/470,Rockdale County,Georgia - GA,"Atlanta,GA (0520)",MSA
30095,Duluth,770/678/470,Gwinnett County,Georgia - GA,"Atlanta,GA (0520)",MSA
30096,Berkeley Lake,770/678/470,Gwinnett County,Georgia - GA,"Atlanta,GA (0520)",MSA
30096,Duluth,770/678/470,Gwinnett County,Georgia - GA,"Atlanta,GA (0520)",MSA
30097,Duluth,770/678/470,Fulton County,Georgia - GA,"Atlanta,GA (0520)",MSA
30097,Johns Creek,770/678/470,Fulton County,Georgia - GA,"Atlanta,GA (0520)",MSA
30098,Duluth,770/678/470,Gwinnett County,Georgia - GA,"Atlanta,GA (0520)",MSA
30098,State Farm Insurance Co,770/678/470,Gwinnett County,Georgia - GA,"Atlanta,GA (0520)",MSA
30099,Duluth,770/678/470,Gwinnett County,Georgia - GA,"Atlanta,GA (0520)",MSA
30099,Primerica Financial Services,770/678/470,Gwinnett County,Georgia - GA,"Atlanta,GA (0520)",MSA
30101,Acworth,770/678/470,Cobb County,Georgia - GA,"Atlanta,GA (0520)",MSA
30101,Oak Grove,770/678/470,Cobb County,Georgia - GA,"Atlanta,GA (0520)",MSA
30102,Acworth,770/678/470,Cherokee County,Georgia - GA,"Atlanta,GA (0520)",MSA
30103,Adairsville,770/678/470,Bartow County,Georgia - GA,"Atlanta,GA (0520)",MSA
30106,Austell,770/678/470,Cobb County,Georgia - GA,"Atlanta,GA (0520)",MSA
30107,Ball Ground,770/678/470,Cherokee County,Georgia - GA,"Atlanta,GA (0520)",MSA
30108,Bowdon,770/678/470,Carroll County,Georgia - GA,"Atlanta,GA (0520)",MSA
30109,Bowdon Jct,770/678/470,Carroll County,Georgia - GA,"Atlanta,GA (0520)",MSA
30109,Bowdon Junction,770/678/470,Carroll County,Georgia - GA,"Atlanta,GA (0520)",MSA
30111,Clarkdale,770/678/470,Cobb County,Georgia - GA,"Atlanta,GA (0520)",MSA
30112,Carrollton,770/678/470,Carroll County,Georgia - GA,"Atlanta,GA (0520)",MSA
30114,Canton,770/678/470,Cherokee County,Georgia - GA,"Atlanta,GA (0520)",MSA
30114,Holly Springs,770/678/470,Cherokee County,Georgia - GA,"Atlanta,GA (0520)",MSA
30115,Canton,770/678/470,Cherokee County,Georgia - GA,"Atlanta,GA (0520)",MSA
30115,Holly Springs,770/678/470,Cherokee County,Georgia - GA,"Atlanta,GA (0520)",MSA
30116,Carrollton,770/678/470,Carroll County,Georgia - GA,"Atlanta,GA (0520)",MSA
30117,Carrollton,770/678/470,Carroll County,Georgia - GA,"Atlanta,GA (0520)",MSA
30117,University of West Georgia,770/678/470,Carroll County,Georgia - GA,"Atlanta,GA (0520)",MSA
30118,Carrollton,770/678/470,Carroll County,Georgia - GA,"Atlanta,GA (0520)",MSA
30118,University of West Georgia,770/678/470,Carroll County,Georgia - GA,"Atlanta,GA (0520)",MSA
30119,Carrollton,770/678/470,Carroll County,Georgia - GA,"Atlanta,GA (0520)",MSA
30119,Southwire,770/678/470,Carroll County,Georgia - GA,"Atlanta,GA (0520)",MSA
30120,Cartersville,770/678/470,Bartow County,Georgia - GA,"Atlanta,GA (0520)",MSA
30120,Euharlee,770/678/470,Bartow County,Georgia - GA,"Atlanta,GA (0520)",MSA
30120,North Corners,770/678/470,Bartow County,Georgia - GA,"Atlanta,GA (0520)",MSA
30121,Cartersville,770/678/470,Bartow County,Georgia - GA,"Atlanta,GA (0520)",MSA
30122,Lithia Springs,770/678/470,Douglas County,Georgia - GA,"Atlanta,GA (0520)",MSA
30123,Cassville,770/678/470,Bartow County,Georgia - GA,"Atlanta,GA (0520)",MSA
30126,Mableton,770/678/470,Cobb County,Georgia - GA,"Atlanta,GA (0520)",MSA
30127,Powder Springs,770/678/470,Cobb County,Georgia - GA,"Atlanta,GA (0520)",MSA
30132,Dallas,770/678/470,Paulding County,Georgia - GA,"Atlanta,GA (0520)",MSA
30133,Douglasville,770/678/470,Douglas County,Georgia - GA,"Atlanta,GA (0520)",MSA
30134,Douglasville,770/678/470,Douglas County,Georgia - GA,"Atlanta,GA (0520)",MSA
30135,Douglasville,770/678/470,Douglas County,Georgia - GA,"Atlanta,GA (0520)",MSA
30137,Emerson,770/678/470,Bartow County,Georgia - GA,"Atlanta,GA (0520)",MSA
30141,Hiram,770/678/470,Paulding County,Georgia - GA,"Atlanta,GA (0520)",MSA
30142,Holly Springs,770/678/470,Cherokee County,Georgia - GA,"Atlanta,GA (0520)",MSA
30143,Big Canoe,706/762,Pickens County,Georgia - GA,"Atlanta,GA (0520)",MSA
30143,Jasper,706/762,Pickens County,Georgia - GA,"Atlanta,GA (0520)",MSA
30144,Barrett Parkway,770/678/470,Cobb County,Georgia - GA,"Atlanta,GA (0520)",MSA
30144,Kennesaw,770/678/470,Cobb County,Georgia - GA,"Atlanta,GA (0520)",MSA
30145,Euharlee,770/678/470,Bartow County,Georgia - GA,"Atlanta,GA (0520)",MSA
30145,Kingston,770/678/470,Bartow County,Georgia - GA,"Atlanta,GA (0520)",MSA
30146,Lebanon,770/678/470,Cherokee County,Georgia - GA,"Atlanta,GA (0520)",MSA
30148,Marble Hill,770/678/470,Pickens County,Georgia - GA,"Atlanta,GA (0520)",MSA
30148,Marblehill,770/678/470,Pickens County,Georgia - GA,"Atlanta,GA (0520)",MSA
30150,Mount Zion,770/678/470,Carroll County,Georgia - GA,"Atlanta,GA (0520)",MSA
30151,Nelson,770/678/470,Cherokee County,Georgia - GA,"Atlanta,GA (0520)",MSA
30152,Kennesaw,770/678/470,Cobb County,Georgia - GA,"Atlanta,GA (0520)",MSA
30154,Douglasville,770/678/470,Douglas County,Georgia - GA,"Atlanta,GA (0520)",MSA
30156,Kennesaw,770/678/470,Cobb County,Georgia - GA,"Atlanta,GA (0520)",MSA
30157,Dallas,770/678/470,Paulding County,Georgia - GA,"Atlanta,GA (0520)",MSA
30160,Kennesaw,770/678/470,Cobb County,Georgia - GA,"Atlanta,GA (0520)",MSA
30168,Austell,770/678/470,Cobb County,Georgia - GA,"Atlanta,GA (0520)",MSA
30169,Canton,770/678/470,Cherokee County,Georgia - GA,"Atlanta,GA (0520)",MSA
30170,Ephesus,770/678/470,Carroll County,Georgia - GA,"Atlanta,GA (0520)",MSA
30170,Roopville,770/678/470,Carroll County,Georgia - GA,"Atlanta,GA (0520)",MSA
30171,Rydal,770/678/470,Bartow County,Georgia - GA,"Atlanta,GA (0520)",MSA
30175,Talking Rock,706/762,Pickens County,Georgia - GA,"Atlanta,GA (0520)",MSA
30175,White Stone,706/762,Pickens County,Georgia - GA,"Atlanta,GA (0520)",MSA
30177,Tate,770/678/470,Pickens County,Georgia - GA,"Atlanta,GA (0520)",MSA
30178,Taylorsville,770/678/470,Bartow County,Georgia - GA,"Atlanta,GA (0520)",MSA
30179,Temple,770/678/470,Carroll County,Georgia - GA,"Atlanta,GA (0520)",MSA
30180,Villa Rica,770/678/470,Carroll County,Georgia - GA,"Atlanta,GA (0520)",MSA
30183,Lake Arrowhead,770/678/470,Cherokee County,Georgia - GA,"Atlanta,GA (0520)",MSA
30183,Waleska,770/678/470,Cherokee County,Georgia - GA,"Atlanta,GA (0520)",MSA
30184,White,770/678/470,Bartow County,Georgia - GA,"Atlanta,GA (0520)",MSA
30185,Whitesburg,770/678/470,Carroll County,Georgia - GA,"Atlanta,GA (0520)",MSA
30187,Winston,770/678/470,Douglas County,Georgia - GA,"Atlanta,GA (0520)",MSA
30188,Holly Springs,770/678/470,Cherokee County,Georgia - GA,"Atlanta,GA (0520)",MSA
30188,Woodstock,770/678/470,Cherokee County,Georgia - GA,"Atlanta,GA (0520)",MSA
30189,Woodstock,770/678/470,Cherokee County,Georgia - GA,"Atlanta,GA (0520)",MSA
30205,Brooks,770/678/470,Fayette County,Georgia - GA,"Atlanta,GA (0520)",MSA
30212,Experiment,770/678/470,Spalding County,Georgia - GA,"Atlanta,GA (0520)",MSA
30213,Fairburn,770/678/470,Fulton County,Georgia - GA,"Atlanta,GA (0520)",MSA
30214,Fayetteville,770/678/470,Fayette County,Georgia - GA,"Atlanta,GA (0520)",MSA
30214,Woolsey,770/678/470,Fayette County,Georgia - GA,"Atlanta,GA (0520)",MSA
30215,Fayetteville,770/678/470,Fayette County,Georgia - GA,"Atlanta,GA (0520)",MSA
30220,Grantville,770/678/470,Coweta County,Georgia - GA,"Atlanta,GA (0520)",MSA
30223,Griffin,770/678/470,Spalding County,Georgia - GA,"Atlanta,GA (0520)",MSA
30224,Griffin,770/678/470,Spalding County,Georgia - GA,"Atlanta,GA (0520)",MSA
30228,Hampton,770/678/470,Henry County,Georgia - GA,"Atlanta,GA (0520)",MSA
30229,Haralson,770/678/470,Coweta County,Georgia - GA,"Atlanta,GA (0520)",MSA
30236,Jonesboro,770/678/470,Clayton County,Georgia - GA,"Atlanta,GA (0520)",MSA
30236,Lake Spivey,770/678/470,Clayton County,Georgia - GA,"Atlanta,GA (0520)",MSA
30237,Jonesboro,770/678/470,Clayton County,Georgia - GA,"Atlanta,GA (0520)",MSA
30238,Jonesboro,770/678/470,Clayton County,Georgia - GA,"Atlanta,GA (0520)",MSA
30248,Locust Grove,770/678/470,Henry County,Georgia - GA,"Atlanta,GA (0520)",MSA
30250,Lovejoy,770/678/470,Clayton County,Georgia - GA,"Atlanta,GA (0520)",MSA
30252,McDonough,770/678/470,Henry County,Georgia - GA,"Atlanta,GA (0520)",MSA
30253,Mc Donough,770/678/470,Henry County,Georgia - GA,"Atlanta,GA (0520)",MSA
30253,McDonough,770/678/470,Henry County,Georgia - GA,"Atlanta,GA (0520)",MSA
30259,Moreland,770/678/470,Coweta County,Georgia - GA,"Atlanta,GA (0520)",MSA
30260,Lake City,770/678/470,Clayton County,Georgia - GA,"Atlanta,GA (0520)",MSA
30260,Morrow,770/678/470,Clayton County,Georgia - GA,"Atlanta,GA (0520)",MSA
30263,Newnan,770/678/470,Coweta County,Georgia - GA,"Atlanta,GA (0520)",MSA
30263,Raymond,770/678/470,Coweta County,Georgia - GA,"Atlanta,GA (0520)",MSA
30264,Newnan,770/678/470,Coweta County,Georgia - GA,"Atlanta,GA (0520)",MSA
30265,Newnan,770/678/470,Coweta County,Georgia - GA,"Atlanta,GA (0520)",MSA
30265,Shenandoah,770/678/470,Coweta County,Georgia - GA,"Atlanta,GA (0520)",MSA
30266,Orchard Hill,770/678/470,Spalding County,Georgia - GA,"Atlanta,GA (0520)",MSA
30268,Chattahoochee Hills,770/678/470,Fulton County,Georgia - GA,"Atlanta,GA (0520)",MSA
30268,Palmetto,770/678/470,Fulton County,Georgia - GA,"Atlanta,GA (0520)",MSA
30269,Peachtree City,770/678/470,Fayette County,Georgia - GA,"Atlanta,GA (0520)",MSA
30270,Fayetteville,770/678/470,Fayette County,Georgia - GA,"Atlanta,GA (0520)",MSA
30270,Peachtree City,770/678/470,Fayette County,Georgia - GA,"Atlanta,GA (0520)",MSA
30270,Peachtree City Parcel Return,770/678/470,Fayette County,Georgia - GA,"Atlanta,GA (0520)",MSA
30271,Newnan,770/678/470,Coweta County,Georgia - GA,"Atlanta,GA (0520)",MSA
30272,Red Oak,404/678/470,Fulton County,Georgia - GA,"Atlanta,GA (0520)",MSA
30273,Rex,770/678/470,Clayton County,Georgia - GA,"Atlanta,GA (0520)",MSA
30274,Riverdale,770/678/470,Clayton County,Georgia - GA,"Atlanta,GA (0520)",MSA
30275,Sargent,770/678/470,Coweta County,Georgia - GA,"Atlanta,GA (0520)",MSA
30276,Senoia,770/678/470,Coweta County,Georgia - GA,"Atlanta,GA (0520)",MSA
30277,Sharpsburg,770/678/470,Coweta County,Georgia - GA,"Atlanta,GA (0520)",MSA
30281,Stockbridge,770/678/470,Henry County,Georgia - GA,"Atlanta,GA (0520)",MSA
30284,Sunny Side,770/678/470,Coweta County,Georgia - GA,"Atlanta,GA (0520)",MSA
30287,Morrow,770/678/470,Clayton County,Georgia - GA,"Atlanta,GA (0520)",MSA
30288,Conley,404/678/470,Clayton County,Georgia - GA,"Atlanta,GA (0520)",MSA
30289,Turin,770/678/470,Coweta County,Georgia - GA,"Atlanta,GA (0520)",MSA
30290,Tyrone,770/678/470,Fayette County,Georgia - GA,"Atlanta,GA (0520)",MSA
30291,Union City,770/678/470,Fulton County,Georgia - GA,"Atlanta,GA (0520)",MSA
30294,Ellenwood,770/678/470,DeKalb County,Georgia - GA,"Atlanta,GA (0520)",MSA
30296,Riverdale,770/678/470,Clayton County,Georgia - GA,"Atlanta,GA (0520)",MSA
30297,Forest Park,404/678/470,Clayton County,Georgia - GA,"Atlanta,GA (0520)",MSA
30297,Fort Gillem,404/678/470,Clayton County,Georgia - GA,"Atlanta,GA (0520)",MSA
30298,Forest,404/678/470,Clayton County,Georgia - GA,"Atlanta,GA (0520)",MSA
30298,Forest Park,404/678/470,Clayton County,Georgia - GA,"Atlanta,GA (0520)",MSA
30301,ATL,404/678/470,Fulton County,Georgia - GA,"Atlanta,GA (0520)",MSA
30301,Atlanta,404/678/470,Fulton County,Georgia - GA,"Atlanta,GA (0520)",MSA
30302,ATL,404/678/470,Fulton County,Georgia - GA,"Atlanta,GA (0520)",MSA
30302,Atlanta,404/678/470,Fulton County,Georgia - GA,"Atlanta,GA (0520)",MSA
30303,ATL,404/678/470,Fulton County,Georgia - GA,"Atlanta,GA (0520)",MSA
30303,Atlanta,404/678/470,Fulton County,Georgia - GA,"Atlanta,GA (0520)",MSA
30303,Georgia State University,404/678/470,Fulton County,Georgia - GA,"Atlanta,GA (0520)",MSA
30304,ATL,404/678/470,Fulton County,Georgia - GA,"Atlanta,GA (0520)",MSA
30304,Atlanta,404/678/470,Fulton County,Georgia - GA,"Atlanta,GA (0520)",MSA
30305,ATL,404/678/470,Fulton County,Georgia - GA,"Atlanta,GA (0520)",MSA
30305,Atlanta,404/678/470,Fulton County,Georgia - GA,"Atlanta,GA (0520)",MSA
30306,ATL,404/678/470,Fulton County,Georgia - GA,"Atlanta,GA (0520)",MSA
30306,Atlanta,404/678/470,Fulton County,Georgia - GA,"Atlanta,GA (0520)",MSA
30306,North Highland Finance,404/678/470,Fulton County,Georgia - GA,"Atlanta,GA (0520)",MSA
30307,ATL,404/678/470,Fulton County,Georgia - GA,"Atlanta,GA (0520)",MSA
30307,Atlanta,404/678/470,Fulton County,Georgia - GA,"Atlanta,GA (0520)",MSA
30307,Little Five Points Pstl Str,404/678/470,Fulton County,Georgia - GA,"Atlanta,GA (0520)",MSA
30308,ATL,404/678/470,Fulton County,Georgia - GA,"Atlanta,GA (0520)",MSA
30308,Atlanta,404/678/470,Fulton County,Georgia - GA,"Atlanta,GA (0520)",MSA
30309,ATL,404/678/470,Fulton County,Georgia - GA,"Atlanta,GA (0520)",MSA
30309,Atlanta,404/678/470,Fulton County,Georgia - GA,"Atlanta,GA (0520)",MSA
30310,ATL,404/678/470,Fulton County,Georgia - GA,"Atlanta,GA (0520)",MSA
30310,Atlanta,404/678/470,Fulton County,Georgia - GA,"Atlanta,GA (0520)",MSA
30310,Fort McPherson,404/678/470,Fulton County,Georgia - GA,"Atlanta,GA (0520)",MSA
30311,ATL,404/678/470,Fulton County,Georgia - GA,"Atlanta,GA (0520)",MSA
30311,Atlanta,404/678/470,Fulton County,Georgia - GA,"Atlanta,GA (0520)",MSA
30312,ATL,404/678/470,Fulton County,Georgia - GA,"Atlanta,GA (0520)",MSA
30312,Atlanta,404/678/470,Fulton County,Georgia - GA,"Atlanta,GA (0520)",MSA
30313,ATL,404/678/470,Fulton County,Georgia - GA,"Atlanta,GA (0520)",MSA
30313,Atlanta,404/678/470,Fulton County,Georgia - GA,"Atlanta,GA (0520)",MSA
30314,ATL,404/678/470,Fulton County,Georgia - GA,"Atlanta,GA (0520)",MSA
30314,Atlanta,404/678/470,Fulton County,Georgia - GA,"Atlanta,GA (0520)",MSA
30315,ATL,404/678/470,Fulton County,Georgia - GA,"Atlanta,GA (0520)",MSA
30315,Atlanta,404/678/470,Fulton County,Georgia - GA,"Atlanta,GA (0520)",MSA
30316,ATL,404/678/470,Fulton County,Georgia - GA,"Atlanta,GA (0520)",MSA
30316,Atlanta,404/678/470,Fulton County,Georgia - GA,"Atlanta,GA (0520)",MSA
30317,ATL,404/678/470,DeKalb County,Georgia - GA,"Atlanta,GA (0520)",MSA
30317,Atlanta,404/678/470,DeKalb County,Georgia - GA,"Atlanta,GA (0520)",MSA
30318,ATL,404/678/470,Fulton County,Georgia - GA,"Atlanta,GA (0520)",MSA
30318,Atlanta,404/678/470,Fulton County,Georgia - GA,"Atlanta,GA (0520)",MSA
30319,ATL,404/678/470,DeKalb County,Georgia - GA,"Atlanta,GA (0520)",MSA
30319,Atlanta,404/678/470,DeKalb County,Georgia - GA,"Atlanta,GA (0520)",MSA
30319,North Atlanta,404/678/470,DeKalb County,Georgia - GA,"Atlanta,GA (0520)",MSA
30320,Airport Mail Center,404/678/470,Fulton County,Georgia - GA,"Atlanta,GA (0520)",MSA
30320,ATL,404/678/470,Fulton County,Georgia - GA,"Atlanta,GA (0520)",MSA
30320,Atlanta,404/678/470,Fulton County,Georgia - GA,"Atlanta,GA (0520)",MSA
30321,ATL,404/678/470,Fulton County,Georgia - GA,"Atlanta,GA (0520)",MSA
30321,Atlanta,404/678/470,Fulton County,Georgia - GA,"Atlanta,GA (0520)",MSA
30322,ATL,404/678/470,DeKalb County,Georgia - GA,"Atlanta,GA (0520)",MSA
30322,Atlanta,404/678/470,DeKalb County,Georgia - GA,"Atlanta,GA (0520)",MSA
30322,Emory University,404/678/470,DeKalb County,Georgia - GA,"Atlanta,GA (0520)",MSA
30324,ATL,404/678/470,Fulton County,Georgia - GA,"Atlanta,GA (0520)",MSA
30324,Atlanta,404/678/470,Fulton County,Georgia - GA,"Atlanta,GA (0520)",MSA
30325,ATL,404/678/470,Fulton County,Georgia - GA,"Atlanta,GA (0520)",MSA
30325,Atlanta,404/678/470,Fulton County,Georgia - GA,"Atlanta,GA (0520)",MSA
30326,ATL,404/678/470,Fulton County,Georgia - GA,"Atlanta,GA (0520)",MSA
30326,Atlanta,404/678/470,Fulton County,Georgia - GA,"Atlanta,GA (0520)",MSA
30327,ATL,404/678/470,Fulton County,Georgia - GA,"Atlanta,GA (0520)",MSA
30327,Atlanta,404/678/470,Fulton County,Georgia - GA,"Atlanta,GA (0520)",MSA
30328,ATL,770/678/470,Fulton County,Georgia - GA,"Atlanta,GA (0520)",MSA
30328,Atlanta,770/678/470,Fulton County,Georgia - GA,"Atlanta,GA (0520)",MSA
30328,Sandy Springs,770/678/470,Fulton County,Georgia - GA,"Atlanta,GA (0520)",MSA
30329,ATL,404/678/470,DeKalb County,Georgia - GA,"Atlanta,GA (0520)",MSA
30329,Atlanta,404/678/470,DeKalb County,Georgia - GA,"Atlanta,GA (0520)",MSA
30329,Briarcliff,404/678/470,DeKalb County,Georgia - GA,"Atlanta,GA (0520)",MSA
30330,ATL,404/678/470,Fulton County,Georgia - GA,"Atlanta,GA (0520)",MSA
30330,Atlanta,404/678/470,Fulton County,Georgia - GA,"Atlanta,GA (0520)",MSA
30330,Fort McPherson,404/678/470,Fulton County,Georgia - GA,"Atlanta,GA (0520)",MSA
30331,ATL,404/678/470,Fulton County,Georgia - GA,"Atlanta,GA (0520)",MSA
30331,Atlanta,404/678/470,Fulton County,Georgia - GA,"Atlanta,GA (0520)",MSA
30332,ATL,404/678/470,Fulton County,Georgia - GA,"Atlanta,GA (0520)",MSA
30332,Atlanta,404/678/470,Fulton County,Georgia - GA,"Atlanta,GA (0520)",MSA
30333,ATL,404/678/470,DeKalb County,Georgia - GA,"Atlanta,GA (0520)",MSA
30333,Atlanta,404/678/470,DeKalb County,Georgia - GA,"Atlanta,GA (0520)",MSA
30333,Druid Hills,404/678/470,DeKalb County,Georgia - GA,"Atlanta,GA (0520)",MSA
30334,ATL,404/678/470,Fulton County,Georgia - GA,"Atlanta,GA (0520)",MSA
30334,Atlanta,404/678/470,Fulton County,Georgia - GA,"Atlanta,GA (0520)",MSA
30336,ATL,404/678/470,Fulton County,Georgia - GA,"Atlanta,GA (0520)",MSA
30336,Atlanta,404/678/470,Fulton County,Georgia - GA,"Atlanta,GA (0520)",MSA
30336,Industrial,404/678/470,Fulton County,Georgia - GA,"Atlanta,GA (0520)",MSA
30337,ATL,404/678/470,Fulton County,Georgia - GA,"Atlanta,GA (0520)",MSA
30337,Atlanta,404/678/470,Fulton County,Georgia - GA,"Atlanta,GA (0520)",MSA
30337,College Park,404/678/470,Fulton County,Georgia - GA,"Atlanta,GA (0520)",MSA
30338,ATL,770/678/470,DeKalb County,Georgia - GA,"Atlanta,GA (0520)",MSA
30338,Atlanta,770/678/470,DeKalb County,Georgia - GA,"Atlanta,GA (0520)",MSA
30338,Dunwoody,770/678/470,DeKalb County,Georgia - GA,"Atlanta,GA (0520)",MSA
30338,North Springs,770/678/470,DeKalb County,Georgia - GA,"Atlanta,GA (0520)",MSA
30339,ATL,770/678/470,Fulton County,Georgia - GA,"Atlanta,GA (0520)",MSA
30339,Atlanta,770/678/470,Fulton County,Georgia - GA,"Atlanta,GA (0520)",MSA
30339,Cumberland,770/678/470,Fulton County,Georgia - GA,"Atlanta,GA (0520)",MSA
30339,Overlook Sru,770/678/470,Fulton County,Georgia - GA,"Atlanta,GA (0520)",MSA
30339,Smyrna,770/678/470,Fulton County,Georgia - GA,"Atlanta,GA (0520)",MSA
30339,Vinings,770/678/470,Fulton County,Georgia - GA,"Atlanta,GA (0520)",MSA
30339,Vinnings,770/678/470,Fulton County,Georgia - GA,"Atlanta,GA (0520)",MSA
30340,ATL,770/678/470,DeKalb County,Georgia - GA,"Atlanta,GA (0520)",MSA
30340,Atlanta,770/678/470,DeKalb County,Georgia - GA,"Atlanta,GA (0520)",MSA
30340,Doraville,770/678/470,DeKalb County,Georgia - GA,"Atlanta,GA (0520)",MSA
30341,ATL,770/678/470,DeKalb County,Georgia - GA,"Atlanta,GA (0520)",MSA
30341,Atlanta,770/678/470,DeKalb County,Georgia - GA,"Atlanta,GA (0520)",MSA
30341,Chamblee,770/678/470,DeKalb County,Georgia - GA,"Atlanta,GA (0520)",MSA
30342,ATL,404/678/470,Fulton County,Georgia - GA,"Atlanta,GA (0520)",MSA
30342,Atlanta,404/678/470,Fulton County,Georgia - GA,"Atlanta,GA (0520)",MSA
30342,Sandy Springs,404/678/470,Fulton County,Georgia - GA,"Atlanta,GA (0520)",MSA
30342,Tuxedo,404/678/470,Fulton County,Georgia - GA,"Atlanta,GA (0520)",MSA
30343,ATL,404/678/470,Fulton County,Georgia - GA,"Atlanta,GA (0520)",MSA
30343,Atlanta,404/678/470,Fulton County,Georgia - GA,"Atlanta,GA (0520)",MSA
30344,ATL,404/678/470,Fulton County,Georgia - GA,"Atlanta,GA (0520)",MSA
30344,Atlanta,404/678/470,Fulton County,Georgia - GA,"Atlanta,GA (0520)",MSA
30344,East Point,404/678/470,Fulton County,Georgia - GA,"Atlanta,GA (0520)",MSA
30345,ATL,404/678/470,DeKalb County,Georgia - GA,"Atlanta,GA (0520)",MSA
30345,Atlanta,404/678/470,DeKalb County,Georgia - GA,"Atlanta,GA (0520)",MSA
30346,ATL,770/678/470,DeKalb County,Georgia - GA,"Atlanta,GA (0520)",MSA
30346,Atlanta,770/678/470,DeKalb County,Georgia - GA,"Atlanta,GA (0520)",MSA
30346,Dunwoody,770/678/470,DeKalb County,Georgia - GA,"Atlanta,GA (0520)",MSA
30347,ATL,404/678/470,Fulton County,Georgia - GA,"Atlanta,GA (0520)",MSA
30347,Atlanta,404/678/470,Fulton County,Georgia - GA,"Atlanta,GA (0520)",MSA
30348,ATL,404/678/470,Fulton County,Georgia - GA,"Atlanta,GA (0520)",MSA
30348,Atlanta,404/678/470,Fulton County,Georgia - GA,"Atlanta,GA (0520)",MSA
30349,ATL,404/678/470,Fulton County,Georgia - GA,"Atlanta,GA (0520)",MSA
30349,Atlanta,404/678/470,Fulton County,Georgia - GA,"Atlanta,GA (0520)",MSA
30349,College Park,404/678/470,Fulton County,Georgia - GA,"Atlanta,GA (0520)",MSA
30350,ATL,770/678/470,Fulton County,Georgia - GA,"Atlanta,GA (0520)",MSA
30350,Atlanta,770/678/470,Fulton County,Georgia - GA,"Atlanta,GA (0520)",MSA
30350,Sandy Springs,770/678/470,Fulton County,Georgia - GA,"Atlanta,GA (0520)",MSA
30353,ATL,404/678/470,Fulton County,Georgia - GA,"Atlanta,GA (0520)",MSA
30353,Atlanta,404/678/470,Fulton County,Georgia - GA,"Atlanta,GA (0520)",MSA
30354,ATL,404/678/470,Fulton County,Georgia - GA,"Atlanta,GA (0520)",MSA
30354,Atlanta,404/678/470,Fulton County,Georgia - GA,"Atlanta,GA (0520)",MSA
30354,Hapeville,404/678/470,Fulton County,Georgia - GA,"Atlanta,GA (0520)",MSA
30355,ATL,404/678/470,Fulton County,Georgia - GA,"Atlanta,GA (0520)",MSA
30355,Atlanta,404/678/470,Fulton County,Georgia - GA,"Atlanta,GA (0520)",MSA
30356,ATL,770/678/470,DeKalb County,Georgia - GA,"Atlanta,GA (0520)",MSA
30356,Atlanta,770/678/470,DeKalb County,Georgia - GA,"Atlanta,GA (0520)",MSA
30356,Dunwoody,770/678/470,DeKalb County,Georgia - GA,"Atlanta,GA (0520)",MSA
30357,ATL,404/678/470,Fulton County,Georgia - GA,"Atlanta,GA (0520)",MSA
30357,Atlanta,404/678/470,Fulton County,Georgia - GA,"Atlanta,GA (0520)",MSA
30358,ATL,770/678/470,Fulton County,Georgia - GA,"Atlanta,GA (0520)",MSA
30358,Atlanta,770/678/470,Fulton County,Georgia - GA,"Atlanta,GA (0520)",MSA
30358,Sandy Springs,770/678/470,Fulton County,Georgia - GA,"Atlanta,GA (0520)",MSA
30359,ATL,404/678/470,DeKalb County,Georgia - GA,"Atlanta,GA (0520)",MSA
30359,Atlanta,404/678/470,DeKalb County,Georgia - GA,"Atlanta,GA (0520)",MSA
30360,ATL,770/678/470,DeKalb County,Georgia - GA,"Atlanta,GA (0520)",MSA
30360,Atlanta,770/678/470,DeKalb County,Georgia - GA,"Atlanta,GA (0520)",MSA
30360,Doraville,770/678/470,DeKalb County,Georgia - GA,"Atlanta,GA (0520)",MSA
30360,Dunwoody,770/678/470,DeKalb County,Georgia - GA,"Atlanta,GA (0520)",MSA
30360,Winters Chapel,770/678/470,DeKalb County,Georgia - GA,"Atlanta,GA (0520)",MSA
30361,ATL,404/678/470,Fulton County,Georgia - GA,"Atlanta,GA (0520)",MSA
30361,Atlanta,404/678/470,Fulton County,Georgia - GA,"Atlanta,GA (0520)",MSA
30362,ATL,770/678/470,DeKalb County,Georgia - GA,"Atlanta,GA (0520)",MSA
30362,Atlanta,770/678/470,DeKalb County,Georgia - GA,"Atlanta,GA (0520)",MSA
30362,Doraville,770/678/470,DeKalb County,Georgia - GA,"Atlanta,GA (0520)",MSA
30363,Atlanta,404/678/470,Fulton County,Georgia - GA,"Atlanta,GA (0520)",MSA
30364,ATL,404/678/470,Fulton County,Georgia - GA,"Atlanta,GA (0520)",MSA
30364,Atlanta,404/678/470,Fulton County,Georgia - GA,"Atlanta,GA (0520)",MSA
30364,East Point,404/678/470,Fulton County,Georgia - GA,"Atlanta,GA (0520)",MSA
30366,ATL,770/678/470,DeKalb County,Georgia - GA,"Atlanta,GA (0520)",MSA
30366,Atlanta,770/678/470,DeKalb County,Georgia - GA,"Atlanta,GA (0520)",MSA
30366,Chamblee,770/678/470,DeKalb County,Georgia - GA,"Atlanta,GA (0520)",MSA
30368,ATL,404/678/470,Fulton County,Georgia - GA,"Atlanta,GA (0520)",MSA
30368,Atlanta,404/678/470,Fulton County,Georgia - GA,"Atlanta,GA (0520)",MSA
30368,Suntrust,404/678/470,Fulton County,Georgia - GA,"Atlanta,GA (0520)",MSA
30369,ATL,404/678/470,Fulton County,Georgia - GA,"Atlanta,GA (0520)",MSA
30369,Atlanta,404/678/470,Fulton County,Georgia - GA,"Atlanta,GA (0520)",MSA
30369,U S P S Bulk Mail Center,404/678/470,Fulton County,Georgia - GA,"Atlanta,GA (0520)",MSA
30370,ATL,404/678/470,Fulton County,Georgia - GA,"Atlanta,GA (0520)",MSA
30370,Atlanta,404/678/470,Fulton County,Georgia - GA,"Atlanta,GA (0520)",MSA
30371,ATL,404/678/470,Fulton County,Georgia - GA,"Atlanta,GA (0520)",MSA
30371,Atlanta,404/678/470,Fulton County,Georgia - GA,"Atlanta,GA (0520)",MSA
30374,ATL,404/678/470,Fulton County,Georgia - GA,"Atlanta,GA (0520)",MSA
30374,Atlanta,404/678/470,Fulton County,Georgia - GA,"Atlanta,GA (0520)",MSA
30375,ATL,404/678/470,Fulton County,Georgia - GA,"Atlanta,GA (0520)",MSA
30375,Atlanta,404/678/470,Fulton County,Georgia - GA,"Atlanta,GA (0520)",MSA
30375,ATT Bellsouth,404/678/470,Fulton County,Georgia - GA,"Atlanta,GA (0520)",MSA
30376,ATL,404/678/470,Fulton County,Georgia - GA,"Atlanta,GA (0520)",MSA
30376,Atlanta,404/678/470,Fulton County,Georgia - GA,"Atlanta,GA (0520)",MSA
30377,ATL,404/678/470,Fulton County,Georgia - GA,"Atlanta,GA (0520)",MSA
30377,Atlanta,404/678/470,Fulton County,Georgia - GA,"Atlanta,GA (0520)",MSA
30378,ATL,404/678/470,Fulton County,Georgia - GA,"Atlanta,GA (0520)",MSA
30378,Atlanta,404/678/470,Fulton County,Georgia - GA,"Atlanta,GA (0520)",MSA
30379,ATL,404/678/470,Fulton County,Georgia - GA,"Atlanta,GA (0520)",MSA
30379,Atlanta,404/678/470,Fulton County,Georgia - GA,"Atlanta,GA (0520)",MSA
30380,ATL,404/678/470,Fulton County,Georgia - GA,"Atlanta,GA (0520)",MSA
30380,Atlanta,404/678/470,Fulton County,Georgia - GA,"Atlanta,GA (0520)",MSA
30380,Atlanta Postal Credit Union,404/678/470,Fulton County,Georgia - GA,"Atlanta,GA (0520)",MSA
30384,ATL,404/678/470,Fulton County,Georgia - GA,"Atlanta,GA (0520)",MSA
30384,Atlanta,404/678/470,Fulton County,Georgia - GA,"Atlanta,GA (0520)",MSA
30384,Bankamerica Corporation,404/678/470,Fulton County,Georgia - GA,"Atlanta,GA (0520)",MSA
30385,ATL,404/678/470,Fulton County,Georgia - GA,"Atlanta,GA (0520)",MSA
30385,Atlanta,404/678/470,Fulton County,Georgia - GA,"Atlanta,GA (0520)",MSA
30385,ATT Bellsouth,404/678/470,Fulton County,Georgia - GA,"Atlanta,GA (0520)",MSA
30388,ATL,404/678/470,Fulton County,Georgia - GA,"Atlanta,GA (0520)",MSA
30388,Atlanta,404/678/470,Fulton County,Georgia - GA,"Atlanta,GA (0520)",MSA
30388,Avon,404/678/470,Fulton County,Georgia - GA,"Atlanta,GA (0520)",MSA
30390,ATL,404/678/470,Fulton County,Georgia - GA,"Atlanta,GA (0520)",MSA
30390,Atlanta,404/678/470,Fulton County,Georgia - GA,"Atlanta,GA (0520)",MSA
30390,T Mobile,404/678/470,Fulton County,Georgia - GA,"Atlanta,GA (0520)",MSA
30392,ATL,404/678/470,Fulton County,Georgia - GA,"Atlanta,GA (0520)",MSA
30392,Atlanta,404/678/470,Fulton County,Georgia - GA,"Atlanta,GA (0520)",MSA
30394,ATL,404/678/470,Fulton County,Georgia - GA,"Atlanta,GA (0520)",MSA
30394,Atlanta,404/678/470,Fulton County,Georgia - GA,"Atlanta,GA (0520)",MSA
30396,ATL,404/678/470,Fulton County,Georgia - GA,"Atlanta,GA (0520)",MSA
30396,Atlanta,404/678/470,Fulton County,Georgia - GA,"Atlanta,GA (0520)",MSA
30396,Georgia Power,404/678/470,Fulton County,Georgia - GA,"Atlanta,GA (0520)",MSA
30398,ATL,404/678/470,Fulton County,Georgia - GA,"Atlanta,GA (0520)",MSA
30398,Atlanta,404/678/470,Fulton County,Georgia - GA,"Atlanta,GA (0520)",MSA
30398,Bank of America,404/678/470,Fulton County,Georgia - GA,"Atlanta,GA (0520)",MSA
30515,Buford,770/678/470,Gwinnett County,Georgia - GA,"Atlanta,GA (0520)",MSA
30518,Buford,770/678/470,Gwinnett County,Georgia - GA,"Atlanta,GA (0520)",MSA
30518,Sugar Hill,770/678/470,Gwinnett County,Georgia - GA,"Atlanta,GA (0520)",MSA
30518,Sugarhill,770/678/470,Gwinnett County,Georgia - GA,"Atlanta,GA (0520)",MSA
30519,Buford,770/678/470,Gwinnett County,Georgia - GA,"Atlanta,GA (0520)",MSA
30620,Bethlehem,770/678/470,Barrow County,Georgia - GA,"Atlanta,GA (0520)",MSA
30641,Good Hope,770/678/470,Walton County,Georgia - GA,"Atlanta,GA (0520)",MSA
30655,Monroe,770/678/470,Walton County,Georgia - GA,"Atlanta,GA (0520)",MSA
30656,Monroe,770/678/470,Walton County,Georgia - GA,"Atlanta,GA (0520)",MSA
30666,Statham,770/678/470,Barrow County,Georgia - GA,"Atlanta,GA (0520)",MSA
30680,Winder,770/678/470,Barrow County,Georgia - GA,"Atlanta,GA (0520)",MSA
31106,ATL,404/678/470,Fulton County,Georgia - GA,"Atlanta,GA (0520)",MSA
31106,Atlanta,404/678/470,Fulton County,Georgia - GA,"Atlanta,GA (0520)",MSA
31107,ATL,404/678/470,Fulton County,Georgia - GA,"Atlanta,GA (0520)",MSA
31107,Atlanta,404/678/470,Fulton County,Georgia - GA,"Atlanta,GA (0520)",MSA
31119,ATL,404/678/470,DeKalb County,Georgia - GA,"Atlanta,GA (0520)",MSA
31119,Atlanta,404/678/470,DeKalb County,Georgia - GA,"Atlanta,GA (0520)",MSA
31126,ATL,404/678/470,Fulton County,Georgia - GA,"Atlanta,GA (0520)",MSA
31126,Atlanta,404/678/470,Fulton County,Georgia - GA,"Atlanta,GA (0520)",MSA
31126,Lenox Sq Finance,404/678/470,Fulton County,Georgia - GA,"Atlanta,GA (0520)",MSA
31126,Lenox Square Finance,404/678/470,Fulton County,Georgia - GA,"Atlanta,GA (0520)",MSA
31131,ATL,404/678/470,Fulton County,Georgia - GA,"Atlanta,GA (0520)",MSA
31131,Atlanta,404/678/470,Fulton County,Georgia - GA,"Atlanta,GA (0520)",MSA
31136,Atlanta,404/678/470,Fulton County,Georgia - GA,"Atlanta,GA (0520)",MSA
31136,Newgistics,404/678/470,Fulton County,Georgia - GA,"Atlanta,GA (0520)",MSA
31139,ATL,404/678/470,Fulton County,Georgia - GA,"Atlanta,GA (0520)",MSA
31139,Atlanta,404/678/470,Fulton County,Georgia - GA,"Atlanta,GA (0520)",MSA
31141,ATL,404/678/470,DeKalb County,Georgia - GA,"Atlanta,GA (0520)",MSA
31141,Atlanta,404/678/470,DeKalb County,Georgia - GA,"Atlanta,GA (0520)",MSA
31141,Embry Hls,404/678/470,DeKalb County,Georgia - GA,"Atlanta,GA (0520)",MSA
31145,ATL,404/678/470,DeKalb County,Georgia - GA,"Atlanta,GA (0520)",MSA
31145,Atlanta,404/678/470,DeKalb County,Georgia - GA,"Atlanta,GA (0520)",MSA
31145,Northlake,404/678/470,DeKalb County,Georgia - GA,"Atlanta,GA (0520)",MSA
31146,ATL,404/678/470,DeKalb County,Georgia - GA,"Atlanta,GA (0520)",MSA
31146,Atlanta,404/678/470,DeKalb County,Georgia - GA,"Atlanta,GA (0520)",MSA
31146,Perimeter Center Finance,404/678/470,DeKalb County,Georgia - GA,"Atlanta,GA (0520)",MSA
31150,ATL,404/678/470,Fulton County,Georgia - GA,"Atlanta,GA (0520)",MSA
31150,Atlanta,404/678/470,Fulton County,Georgia - GA,"Atlanta,GA (0520)",MSA
31156,ATL,404/678/470,Fulton County,Georgia - GA,"Atlanta,GA (0520)",MSA
31156,Atlanta,404/678/470,Fulton County,Georgia - GA,"Atlanta,GA (0520)",MSA
31192,ATL,404/678/470,Fulton County,Georgia - GA,"Atlanta,GA (0520)",MSA
31192,Atlanta,404/678/470,Fulton County,Georgia - GA,"Atlanta,GA (0520)",MSA
31192,Mellon Bank,404/678/470,Fulton County,Georgia - GA,"Atlanta,GA (0520)",MSA
31193,ATL,404/678/470,Fulton County,Georgia - GA,"Atlanta,GA (0520)",MSA
31193,Atlanta,404/678/470,Fulton County,Georgia - GA,"Atlanta,GA (0520)",MSA
31193,Wachovia,404/678/470,Fulton County,Georgia - GA,"Atlanta,GA (0520)",MSA
31195,ATL,404/678/470,Fulton County,Georgia - GA,"Atlanta,GA (0520)",MSA
31195,Atlanta,404/678/470,Fulton County,Georgia - GA,"Atlanta,GA (0520)",MSA
31195,Atlanta Bmc,404/678/470,Fulton County,Georgia - GA,"Atlanta,GA (0520)",MSA
31196,ATL,404/678/470,Fulton County,Georgia - GA,"Atlanta,GA (0520)",MSA
31196,Atlanta,404/678/470,Fulton County,Georgia - GA,"Atlanta,GA (0520)",MSA
31196,Atlanta Bmc,404/678/470,Fulton County,Georgia - GA,"Atlanta,GA (0520)",MSA
39901,Atlanta,404/678/470,DeKalb County,Georgia - GA,"Atlanta,GA (0520)",MSA
39901,Chamblee,404/678/470,DeKalb County,Georgia - GA,"Atlanta,GA (0520)",MSA
39901,IRS Service Center,404/678/470,DeKalb County,Georgia - GA,"Atlanta,GA (0520)",MSA
